{"type": "FeatureCollection", "features": [ {"type": "Feature", "properties": {"norad_id": 37867, "name": "COSMOS 2476 (744)", "group": "gnss", "lat": -34.3394681922232, "lon": 60.44671520086777, "alt_km": 19130.84908562023, "timestamp": "2025-12-22T11:33:20.682022+00:00", "meta": {"OBJECT_NAME": "COSMOS 2476 (744)", "OBJECT_ID": "2011-064A", "EPOCH": "2025-12-19T06:05:26.552256", "MEAN_MOTION": 2.13103916, "ECCENTRICITY": 0.0024321, "INCLINATION": 65.1662, "RA_OF_ASC_NODE": 78.9509, "ARG_OF_PERICENTER": 234.6548, "MEAN_ANOMALY": 130.4776, "EPHEMERIS_TYPE": 0, "CLASSIFICATION_TYPE": "U", "NORAD_CAT_ID": 37867, "ELEMENT_SET_NO": 999, "REV_AT_EPOCH": 10993, "BSTAR": 0, "MEAN_MOTION_DOT": -3e-07, "MEAN_MOTION_DDOT": 0}, "tle": {"line1": "1 37867U 11064A   25353.25377954 -.00000030  00000+0  00000+0 0  9995", "line2": "2 37867  65.1662  78.9509 0024321 234.6548 130.4776  2.13103916109937"}}, "geometry": {"type": "Point", "coordinates": [60.44671520086777, -34.3394681922232]}}, {"type": "Feature", "properties": {"norad_id": 37868, "name": "COSMOS 2477 (745)", "group": "gnss", "lat": 33.98037255882443, "lon": -119.21530652894327, "alt_km": 19128.924148502374, "timestamp": "2025-12-22T11:33:20.682034+00:00", "meta": {"OBJECT_NAME": "COSMOS 2477 (745)", "OBJECT_ID": "2011-064B", "EPOCH": "2025-12-21T10:11:05.859168", "MEAN_MOTION": 2.13103052, "ECCENTRICITY": 0.00215188, "INCLINATION": 65.1732, "RA_OF_ASC_NODE": 78.9552, "ARG_OF_PERICENTER": 235.2861, "MEAN_ANOMALY": 175.9616, "EPHEMERIS_TYPE": 0, "CLASSIFICATION_TYPE": "U", "NORAD_CAT_ID": 37868, "ELEMENT_SET_NO": 999, "REV_AT_EPOCH": 10997, "BSTAR": 0, "MEAN_MOTION_DOT": -9e-08, "MEAN_MOTION_DDOT": 0}, "tle": {"line1": "1 37868U 11064B   25355.42437337 -.00000009  00000+0  00000+0 0  9995", "line2": "2 37868  65.1732  78.9552 0021518 235.2861 175.9616  2.13103052109976"}}, "geometry": {"type": "Point", "coordinates": [-119.21530652894327, 33.98037255882443]}}, {"type": "Feature", "properties": {"norad_id": 37869, "name": "COSMOS 2475 (743)", "group": "gnss", "lat": 64.03010880956414, "lon": -172.57367648738844, "alt_km": 19182.32138036656, "timestamp": "2025-12-22T11:33:20.682045+00:00", "meta": {"OBJECT_NAME": "COSMOS 2475 (743)", "OBJECT_ID": "2011-064C", "EPOCH": "2025-12-21T11:20:32.914752", "MEAN_MOTION": 2.13101692, "ECCENTRICITY": 0.00265897, "INCLINATION": 65.1803, "RA_OF_ASC_NODE": 78.9738, "ARG_OF_PERICENTER": 248.9867, "MEAN_ANOMALY": 155.1664, "EPHEMERIS_TYPE": 0, "CLASSIFICATION_TYPE": "U", "NORAD_CAT_ID": 37869, "ELEMENT_SET_NO": 999, "REV_AT_EPOCH": 10998, "BSTAR": 0, "MEAN_MOTION_DOT": -9e-08, "MEAN_MOTION_DDOT": 0}, "tle": {"line1": "1 37869U 11064C   25355.47260318 -.00000009  00000+0  00000+0 0  9994", "line2": "2 37869  65.1803  78.9738 0026589 248.9867 155.1664  2.13101692109984"}}, "geometry": {"type": "Point", "coordinates": [-172.57367648738844, 64.03010880956414]}}, {"type": "Feature", "properties": {"norad_id": 37948, "name": "BEIDOU-2 IGSO-5 (C10)", "group": "gnss", "lat": 47.639546809028964, "lon": -5.905192182900367, "alt_km": 36120.74706619707, "timestamp": "2025-12-22T11:33:20.682065+00:00", "meta": {"OBJECT_NAME": "BEIDOU-2 IGSO-5 (C10)", "OBJECT_ID": "2011-073A", "EPOCH": "2025-12-21T18:15:38.509632", "MEAN_MOTION": 1.00289356, "ECCENTRICITY": 0.010984, "INCLINATION": 48.0035, "RA_OF_ASC_NODE": 273.7484, "ARG_OF_PERICENTER": 222.2807, "MEAN_ANOMALY": 321.9503, "EPHEMERIS_TYPE": 0, "CLASSIFICATION_TYPE": "U", "NORAD_CAT_ID": 37948, "ELEMENT_SET_NO": 999, "REV_AT_EPOCH": 5135, "BSTAR": 0, "MEAN_MOTION_DOT": -1.44e-06, "MEAN_MOTION_DDOT": 0}, "tle": {"line1": "1 37948U 11073A   25355.76086238 -.00000144  00000+0  00000+0 0  9991", "line2": "2 37948  48.0035 273.7484 0109840 222.2807 321.9503  1.00289356 51354"}}, "geometry": {"type": "Point", "coordinates": [-5.905192182900367, 47.639546809028964]}}, {"type": "Feature", "properties": {"norad_id": 37951, "name": "LUCH 5A (SDCM/PRN 140)", "group": "gnss", "lat": -0.6687812667465939, "lon": 71.73095372465816, "alt_km": 35807.76012266329, "timestamp": "2025-12-22T11:33:20.682078+00:00", "meta": {"OBJECT_NAME": "LUCH 5A (SDCM/PRN 140)", "OBJECT_ID": "2011-074B", "EPOCH": "2025-12-19T12:20:45.341088", "MEAN_MOTION": 1.0026908, "ECCENTRICITY": 0.0005087, "INCLINATION": 8.2961, "RA_OF_ASC_NODE": 76.4843, "ARG_OF_PERICENTER": 189.4736, "MEAN_ANOMALY": 174.6688, "EPHEMERIS_TYPE": 0, "CLASSIFICATION_TYPE": "U", "NORAD_CAT_ID": 37951, "ELEMENT_SET_NO": 999, "REV_AT_EPOCH": 5125, "BSTAR": 0, "MEAN_MOTION_DOT": -3.2e-07, "MEAN_MOTION_DDOT": 0}, "tle": {"line1": "1 37951U 11074B   25353.51441367 -.00000032  00000+0  00000+0 0  9991", "line2": "2 37951   8.2961  76.4843 0005087 189.4736 174.6688  1.00269080 51252"}}, "geometry": {"type": "Point", "coordinates": [71.73095372465816, -0.6687812667465939]}}, {"type": "Feature", "properties": {"norad_id": 38091, "name": "BEIDOU-2 G5 (C05)", "group": "gnss", "lat": -3.0102852935030997, "lon": -36.59698373776319, "alt_km": 35736.15159333197, "timestamp": "2025-12-22T11:33:20.682090+00:00", "meta": {"OBJECT_NAME": "BEIDOU-2 G5 (C05)", "OBJECT_ID": "2012-008A", "EPOCH": "2025-12-19T16:03:31.750272", "MEAN_MOTION": 1.00268606, "ECCENTRICITY": 0.0012969, "INCLINATION": 3.1258, "RA_OF_ASC_NODE": 70.6861, "ARG_OF_PERICENTER": 231.3522, "MEAN_ANOMALY": 86.1393, "EPHEMERIS_TYPE": 0, "CLASSIFICATION_TYPE": "U", "NORAD_CAT_ID": 38091, "ELEMENT_SET_NO": 999, "REV_AT_EPOCH": 5056, "BSTAR": 0, "MEAN_MOTION_DOT": 7.9e-07, "MEAN_MOTION_DDOT": 0}, "tle": {"line1": "1 38091U 12008A   25353.66911748  .00000079  00000+0  00000+0 0  9996", "line2": "2 38091   3.1258  70.6861 0012969 231.3522  86.1393  1.00268606 50560"}}, "geometry": {"type": "Point", "coordinates": [-36.59698373776319, -3.0102852935030997]}}, {"type": "Feature", "properties": {"norad_id": 38250, "name": "BEIDOU-2 M3 (C11)", "group": "gnss", "lat": -26.19086567667394, "lon": -68.62733319448901, "alt_km": 21490.392394735376, "timestamp": "2025-12-22T11:33:20.682102+00:00", "meta": {"OBJECT_NAME": "BEIDOU-2 M3 (C11)", "OBJECT_ID": "2012-018A", "EPOCH": "2025-12-21T23:49:10.133760", "MEAN_MOTION": 1.86230181, "ECCENTRICITY": 0.0024099, "INCLINATION": 55.9124, "RA_OF_ASC_NODE": 310.8468, "ARG_OF_PERICENTER": 275.3188, "MEAN_ANOMALY": 84.4018, "EPHEMERIS_TYPE": 0, "CLASSIFICATION_TYPE": "U", "NORAD_CAT_ID": 38250, "ELEMENT_SET_NO": 999, "REV_AT_EPOCH": 9264, "BSTAR": 0, "MEAN_MOTION_DOT": -6e-07, "MEAN_MOTION_DDOT": 0}, "tle": {"line1": "1 38250U 12018A   25355.99247840 -.00000060  00000+0  00000+0 0  9998", "line2": "2 38250  55.9124 310.8468 0024099 275.3188  84.4018  1.86230181 92640"}}, "geometry": {"type": "Point", "coordinates": [-68.62733319448901, -26.19086567667394]}}, {"type": "Feature", "properties": {"norad_id": 38251, "name": "BEIDOU-2 M4 (C12)", "group": "gnss", "lat": 11.054690987541909, "lon": -42.34002691958825, "alt_km": 21529.999716758975, "timestamp": "2025-12-22T11:33:20.682113+00:00", "meta": {"OBJECT_NAME": "BEIDOU-2 M4 (C12)", "OBJECT_ID": "2012-018B", "EPOCH": "2025-12-21T22:11:20.548896", "MEAN_MOTION": 1.86229896, "ECCENTRICITY": 0.0015256, "INCLINATION": 55.8135, "RA_OF_ASC_NODE": 310.0771, "ARG_OF_PERICENTER": 279.1681, "MEAN_ANOMALY": 80.6551, "EPHEMERIS_TYPE": 0, "CLASSIFICATION_TYPE": "U", "NORAD_CAT_ID": 38251, "ELEMENT_SET_NO": 999, "REV_AT_EPOCH": 9264, "BSTAR": 0, "MEAN_MOTION_DOT": -6e-07, "MEAN_MOTION_DDOT": 0}, "tle": {"line1": "1 38251U 12018B   25355.92454339 -.00000060  00000+0  00000+0 0  9995", "line2": "2 38251  55.8135 310.0771 0015256 279.1681  80.6551  1.86229896 92647"}}, "geometry": {"type": "Point", "coordinates": [-42.34002691958825, 11.054690987541909]}}, {"type": "Feature", "properties": {"norad_id": 38652, "name": "SES-5 (EGNOS/PRN 136)", "group": "gnss", "lat": -0.05451881866697711, "lon": -90.40678772220757, "alt_km": 35778.559688765185, "timestamp": "2025-12-22T11:33:20.682125+00:00", "meta": {"OBJECT_NAME": "SES-5 (EGNOS/PRN 136)", "OBJECT_ID": "2012-036A", "EPOCH": "2025-12-22T03:54:38.524032", "MEAN_MOTION": 1.00271214, "ECCENTRICITY": 0.0001816, "INCLINATION": 0.059, "RA_OF_ASC_NODE": 304.6524, "ARG_OF_PERICENTER": 329.614, "MEAN_ANOMALY": 240.347, "EPHEMERIS_TYPE": 0, "CLASSIFICATION_TYPE": "U", "NORAD_CAT_ID": 38652, "ELEMENT_SET_NO": 999, "REV_AT_EPOCH": 4268, "BSTAR": 0, "MEAN_MOTION_DOT": 5.6e-07, "MEAN_MOTION_DDOT": 0}, "tle": {"line1": "1 38652U 12036A   25356.16294588  .00000056  00000+0  00000+0 0  9999", "line2": "2 38652   0.0590 304.6524 0001816 329.6140 240.3470  1.00271214 42683"}}, "geometry": {"type": "Point", "coordinates": [-90.40678772220757, -0.05451881866697711]}}, {"type": "Feature", "properties": {"norad_id": 38775, "name": "BEIDOU-2 M6 (C14)", "group": "gnss", "lat": -22.354505824334083, "lon": -95.3843294931059, "alt_km": 21554.08071265421, "timestamp": "2025-12-22T11:33:20.682137+00:00", "meta": {"OBJECT_NAME": "BEIDOU-2 M6 (C14)", "OBJECT_ID": "2012-050B", "EPOCH": "2025-12-22T04:08:12.918336", "MEAN_MOTION": 1.86230916, "ECCENTRICITY": 0.0011385, "INCLINATION": 56.3862, "RA_OF_ASC_NODE": 68.7545, "ARG_OF_PERICENTER": 343.4279, "MEAN_ANOMALY": 16.5848, "EPHEMERIS_TYPE": 0, "CLASSIFICATION_TYPE": "U", "NORAD_CAT_ID": 38775, "ELEMENT_SET_NO": 999, "REV_AT_EPOCH": 9001, "BSTAR": 0, "MEAN_MOTION_DOT": -3e-07, "MEAN_MOTION_DDOT": 0}, "tle": {"line1": "1 38775U 12050B   25356.17237174 -.00000030  00000+0  00000+0 0  9993", "line2": "2 38775  56.3862  68.7545 0011385 343.4279  16.5848  1.86230916 90015"}}, "geometry": {"type": "Point", "coordinates": [-95.3843294931059, -22.354505824334083]}}]}